SL-16 R/B               
1 26070U 00006B   21274.67093098 -.00000095  00000-0 -24260-4 0  9993
2 26070  71.0000 263.0349 0014833 133.0456 227.1912 14.15468613119298
MTI                     
1 26102U 00014A   21275.32839499  .00027045  00000-0  28645-3 0  9996
2 26102  97.4559 187.7054 0003319 287.7688  72.3228 15.64107422198033
TITAN 4B R/B            
1 26474U 00047B   21275.31443743  .00000572  00000-0  60044-4 0  9992
2 26474  67.9937 216.6069 0053030  34.2875 326.1671 14.96235934149901
ENVISAT                 
1 27386U 02009A   21275.48209435  .00000068  00000-0  36053-4 0  9994
2 27386  98.1580 264.1162 0001203  87.5707  83.0385 14.38044767 26459
IDEFIX & ARIANE 42P R/B 
1 27422U 02021B   21275.42288184  .00000042  00000-0  33239-4 0  9996
2 27422  98.4130 224.6685 0011065 279.4096  80.5836 14.29332963 10695
AQUA                    
1 27424U 02022A   21275.12055556  .00000232  00000-0  61571-4 0  9992
2 27424  98.2160 214.9456 0001177  38.1407 138.3192 14.57110355 32607
CZ-4B R/B               
1 27432U 02024C   21274.80345422 -.00000007  00000-0  20733-4 0  9997
2 27432  99.0838 290.9733 0049495 287.0988 246.8700 14.14114734   268
MIDORI II (ADEOS-II)    
1 27597U 02056A   21274.84450967  .00000093  00000-0  55367-4 0  9994
2 27597  98.5724 218.0675 0002042  67.5054 292.6343 14.27518988979064
H-2A R/B                
1 27601U 02056E   21275.02402515  .00000043  00000-0  30428-4 0  9993
2 27601  98.1867 291.3175 0071195 312.8485  67.2622 14.32020650982174
CZ-4B R/B               
1 28059U 03049C   21274.81176733  .00000082  00000-0  31388-4 0  9999
2 28059  98.4952 202.9133 0050812 136.6994 223.8212 14.52671367951262
CZ-2C R/B               
1 28222U 04012C   21274.91791399  .00001229  00000-0  75813-4 0  9999
2 28222  97.7399 246.8674 0045411 215.8208 201.3152 15.11084068957177
SL-16 R/B               
1 28353U 04021B   21274.76677512 -.00000166  00000-0 -61907-4 0  9997
2 28353  71.0040  30.8363 0006698 318.9282  41.1335 14.14252668893770
CZ-4B R/B               
1 28415U 04035C   21274.85859527  .00001111  00000-0  75865-4 0  9996
2 28415  97.5550 315.5465 0051140 182.1904 177.9107 15.07230112934637
CZ-2C R/B               
1 28480U 04046B   21275.45413646  .00000005  00000-0  17569-4 0  9993
2 28480  98.0526 278.8345 0140570 266.7434 213.4992 14.25765000877697
ARIANE 5 R/B            
1 28499U 04049H   21274.85717742  .00000302  00000-0  44407-4 0  9994
2 28499  98.0780  24.7024 0091795 189.1042 283.9316 14.80160469905826
CZ-2D R/B               
1 28738U 05024B   21274.75943759  .00001292  00000-0  77549-4 0  9994
2 28738  97.3600 287.0271 0011743   2.3505 357.7780 15.12575005892639
SUZAKU (ASTRO-EII)      
1 28773U 05025A   21275.05066254  .00002865  00000-0  13023-3 0  9997
2 28773  31.3805 187.7146 0004803 277.2707  82.7395 15.18735457895664
ALOS (DAICHI)           
1 28931U 06002A   21275.39808416  .00000237  00000-0  55113-4 0  9998
2 28931  97.8991 245.5205 0002256  59.3744 300.7682 14.62888748836692
H-2A R/B                
1 28932U 06002B   21274.65276963  .00000760  00000-0  74941-4 0  9994
2 28932  98.3240 297.7223 0087191 219.2756 254.4226 14.92691448851425
AKARI (ASTRO-F)         
1 28939U 06005A   21275.36901674  .00007893  00000-0  18767-3 0  9994
2 28939  98.2364 311.6970 0086250 108.9350 252.1265 15.38116226853351
RESURS-DK 1             
1 29228U 06021A   21274.85207919  .00000520  00000-0  46122-4 0  9995
2 29228  69.9351  67.7603 0001565 114.4901 245.6423 15.02760451843523
GENESIS 1               
1 29252U 06029A   21275.22572271  .00001792  00000-0  92365-4 0  9990
2 29252  64.5228 197.7112 0054122 300.1128  59.4636 15.18908640839810
CZ-4B R/B               
1 29507U 06046C   21274.81604738  .00000979  00000-0  79402-4 0  9993
2 29507  97.7661 300.5704 0049307  19.0201 341.2849 15.01152807816068
CZ-2C R/B               
1 31114U 07010B   21274.77615267 -.00000004  00000-0  16651-4 0  9993
2 31114  98.2318 101.0154 0059222 333.6990  26.1184 14.19376283749868
COSMO-SKYMED 1          
1 31598U 07023A   21275.51159677 -.00000058  00000-0 -71254-6 0  9996
2 31598  97.8931  97.9043 0001297  91.4986 268.6379 14.82152141774753
GENESIS 2               
1 31789U 07028A   21275.32144002  .00001511  00000-0  83872-4 0  9998
2 31789  64.4924 239.9992 0016447   9.2014 350.9407 15.17947750786768
COSMOS 2428             
1 31792U 07029A   21275.49515244  .00000320  00000-0  19931-3 0  9992
2 31792  70.9174   1.1224 0005575  76.4867 283.6874 14.12365365735517
SL-16 R/B               
1 31793U 07029B   21275.48092198 -.00000211  00000-0 -85356-4 0  9996
2 31793  70.9780 334.7950 0003069 275.4129 176.7165 14.14453002736479
KORONAS-FOTON           
1 33504U 09003A   21275.01584855  .00001282  00000-0  64522-4 0  9996
2 33504  82.4388 113.4530 0020429  87.1144 273.2426 15.16136921698924
H-2A R/B                
1 38341U 12025E   21274.77306089  .00000473  00000-0  62446-4 0  9995
2 38341  98.5267 107.5466 0055685 156.9270 203.4461 14.84283920507278
CUSAT 2 & FALCON 9 R/B  
1 39271U 13055G   21274.86016168  .00015641  00000-0  36175-3 0  9990
2 39271  80.9618 117.6366 0562156 186.2107 173.1926 14.54467619419095
CZ-2C R/B               
1 39364U 13059B   21274.74351253  .00003986  00000-0  14249-3 0  9998
2 39364  97.2018 331.8934 0046404 172.6683 187.5246 15.28355625440661
SL-4 R/B                
1 39679U 14021B   21274.95271576  .00002574  00000-0  13891-3 0  9993
2 39679  51.6141  78.1670 0169908 140.4370 220.9146 15.07202407410439
ALOS-2                  
1 39766U 14029A   21275.52080559  .00000021  00000-0  97401-5 0  9997
2 39766  97.9219  11.3504 0001445  88.3873 271.7503 14.79472035397494
CZ-2C R/B               
1 40306U 14071B   21274.96981329  .00014159  00000-0  25544-3 0  9992
2 40306  97.3810 234.8617 0011358 238.8214 121.1925 15.49796946386772
SL-27 R/B               
1 40354U 14084B   21274.87217807  .00003015  00000-0  71712-4 0  9990
2 40354  74.7372 131.9964 0035032  83.0339 277.4856 15.41436196380730
YAOGAN 29               
1 41038U 15069A   21275.39485994  .00000067  00000-0  15770-4 0  9992
2 41038  98.0454 269.6516 0001700 111.7168 248.4228 14.80527349316100
ASTRO-H (HITOMI)        
1 41337U 16012A   21275.25050589  .00000608  00000-0  42240-4 0  9999
2 41337  31.0048 257.8996 0012212  54.0845 306.0922 14.98906017308341
HXMT (HUIYAN)           
1 42758U 17034A   21275.46991148  .00000990  00000-0  74511-4 0  9990
2 42758  43.0184 325.6588 0007006 107.5772  24.3591 15.09337946237189
CZ-2C R/B               
1 43521U 18054D   21274.35386820  .00001531  00000-0  83190-4 0  9999
2 43521  35.1531 156.4700 0082197 312.7817  46.6005 15.11699818180430
AEOLUS                  
1 43600U 18066A   21275.06638294  .00067179  00000-0  26616-3 0  9993
2 43600  96.7162 280.2328 0008313  98.0934 262.1282 15.86516141180155
SAOCOM 1A               
1 43641U 18076A   21275.45243786  .00000077  00000-0  16278-4 0  9998
2 43641  97.8886 100.8502 0001310  80.3020 279.8348 14.82159038161516
SAOCOM 1B               
1 46265U 20059A   21275.48360124  .00000062  00000-0  14297-4 0  9999
2 46265  97.8899  99.9457 0001370  82.7716 277.3687 14.82148979 58916
2020-063G               
1 46395U 20063G   21274.84544766  .00084759  13999-4  20844-3 0  9997
2 46395  50.1997 116.2850 0007863 224.9977 135.0374 15.95977691 62221
SL-4 R/B                
1 47547U 21008B   21274.88925311  .00143962  96322-5  45424-3 0  9995
2 47547  67.1347  74.9189 0340170 225.7701 131.5068 15.37075544 36637
TIANHE                  
1 48274U 21035A   21275.52799769  .00005584  00000-0  67490-4 0  9999
2 48274  41.4714 348.3038 0000826 349.3568 226.0594 15.61390809 24489
